{"type": "FeatureCollection", "features": [ {"type": "Feature", "properties": {"norad_id": 46444, "name": "FENGYUN 1C DEB", "group": "fengyun-1c-debris", "lat": 29.55226358893474, "lon": -1.7310541032040703, "alt_km": 786.131387014756, "timestamp": "2025-12-27T12:55:14.796455+00:00", "meta": {"OBJECT_NAME": "FENGYUN 1C DEB", "OBJECT_ID": "1999-025EYZ", "EPOCH": "2025-12-18T06:45:06.153408", "MEAN_MOTION": 14.27169033, "ECCENTRICITY": 0.00846398, "INCLINATION": 98.5129, "RA_OF_ASC_NODE": 354.1289, "ARG_OF_PERICENTER": 134.7606, "MEAN_ANOMALY": 242.101, "EPHEMERIS_TYPE": 0, "CLASSIFICATION_TYPE": "U", "NORAD_CAT_ID": 46444, "ELEMENT_SET_NO": 999, "REV_AT_EPOCH": 62661, "BSTAR": 0.00039999748, "MEAN_MOTION_DOT": 9.72e-06, "MEAN_MOTION_DDOT": 0}, "tle": {"line1": "1 46444U 99025EYZ 25352.28132122  .00000972  00000+0  40000-3 0  9999", "line2": "2 46444  98.5129 354.1289 0084639 134.7606 242.1010 14.27169033626614"}}, "geometry": {"type": "Point", "coordinates": [-1.7310541032040703, 29.55226358893474]}}, {"type": "Feature", "properties": {"norad_id": 46449, "name": "FENGYUN 1C DEB", "group": "fengyun-1c-debris", "lat": 63.771374563381755, "lon": -126.44942922787891, "alt_km": 876.6814638881879, "timestamp": "2025-12-27T12:55:14.796467+00:00", "meta": {"OBJECT_NAME": "FENGYUN 1C DEB", "OBJECT_ID": "1999-025EZE", "EPOCH": "2025-12-26T07:35:47.406624", "MEAN_MOTION": 14.19120399, "ECCENTRICITY": 0.0203174, "INCLINATION": 98.6419, "RA_OF_ASC_NODE": 34.3786, "ARG_OF_PERICENTER": 231.3087, "MEAN_ANOMALY": 126.9765, "EPHEMERIS_TYPE": 0, "CLASSIFICATION_TYPE": "U", "NORAD_CAT_ID": 46449, "ELEMENT_SET_NO": 999, "REV_AT_EPOCH": 57829, "BSTAR": 0.00050059, "MEAN_MOTION_DOT": 1.24e-05, "MEAN_MOTION_DDOT": 0}, "tle": {"line1": "1 46449U 99025EZE 25360.31652091  .00001240  00000+0  50059-3 0  9993", "line2": "2 46449  98.6419  34.3786 0203174 231.3087 126.9765 14.19120399578294"}}, "geometry": {"type": "Point", "coordinates": [-126.44942922787891, 63.771374563381755]}}, {"type": "Feature", "properties": {"norad_id": 46450, "name": "FENGYUN 1C DEB", "group": "fengyun-1c-debris", "lat": 6.744605474514405, "lon": 37.52018875257998, "alt_km": 1002.62841171951, "timestamp": "2025-12-27T12:55:14.796478+00:00", "meta": {"OBJECT_NAME": "FENGYUN 1C DEB", "OBJECT_ID": "1999-025EZF", "EPOCH": "2025-12-22T20:54:28.404576", "MEAN_MOTION": 14.0364475, "ECCENTRICITY": 0.018354, "INCLINATION": 98.08, "RA_OF_ASC_NODE": 212.4054, "ARG_OF_PERICENTER": 32.107, "MEAN_ANOMALY": 329.1123, "EPHEMERIS_TYPE": 0, "CLASSIFICATION_TYPE": "U", "NORAD_CAT_ID": 46450, "ELEMENT_SET_NO": 999, "REV_AT_EPOCH": 61261, "BSTAR": 0.0021946, "MEAN_MOTION_DOT": 3.968e-05, "MEAN_MOTION_DDOT": 0}, "tle": {"line1": "1 46450U 99025EZF 25356.87116209  .00003968  00000+0  21946-2 0  9998", "line2": "2 46450  98.0800 212.4054 0183540  32.1070 329.1123 14.03644750612619"}}, "geometry": {"type": "Point", "coordinates": [37.52018875257998, 6.744605474514405]}}, {"type": "Feature", "properties": {"norad_id": 46451, "name": "FENGYUN 1C DEB", "group": "fengyun-1c-debris", "lat": -41.35666960844576, "lon": 26.851931947276938, "alt_km": 952.8841344988223, "timestamp": "2025-12-27T12:55:14.796488+00:00", "meta": {"OBJECT_NAME": "FENGYUN 1C DEB", "OBJECT_ID": "1999-025EZG", "EPOCH": "2025-12-25T00:24:40.589280", "MEAN_MOTION": 14.2051902, "ECCENTRICITY": 0.01711251, "INCLINATION": 98.1525, "RA_OF_ASC_NODE": 17.276, "ARG_OF_PERICENTER": 150.099, "MEAN_ANOMALY": 241.9836, "EPHEMERIS_TYPE": 0, "CLASSIFICATION_TYPE": "U", "NORAD_CAT_ID": 46451, "ELEMENT_SET_NO": 999, "REV_AT_EPOCH": 57181, "BSTAR": 0.0023483511, "MEAN_MOTION_DOT": 5.811e-05, "MEAN_MOTION_DDOT": 0}, "tle": {"line1": "1 46451U 99025EZG 25359.01713645  .00005811  00000+0  23484-2 0  9993", "line2": "2 46451  98.1525  17.2760 0171125 150.0990 241.9836 14.20519020571815"}}, "geometry": {"type": "Point", "coordinates": [26.851931947276938, -41.35666960844576]}}, {"type": "Feature", "properties": {"norad_id": 46468, "name": "FENGYUN 1C DEB", "group": "fengyun-1c-debris", "lat": 65.83641684177626, "lon": 69.08742360562348, "alt_km": 819.8306520275055, "timestamp": "2025-12-27T12:55:14.796499+00:00", "meta": {"OBJECT_NAME": "FENGYUN 1C DEB", "OBJECT_ID": "1999-025EZK", "EPOCH": "2025-12-22T17:02:48.613632", "MEAN_MOTION": 14.2480408, "ECCENTRICITY": 0.00465889, "INCLINATION": 98.8843, "RA_OF_ASC_NODE": 84.6069, "ARG_OF_PERICENTER": 202.7167, "MEAN_ANOMALY": 314.1415, "EPHEMERIS_TYPE": 0, "CLASSIFICATION_TYPE": "U", "NORAD_CAT_ID": 46468, "ELEMENT_SET_NO": 999, "REV_AT_EPOCH": 73958, "BSTAR": 0.0018930281, "MEAN_MOTION_DOT": 4.421e-05, "MEAN_MOTION_DDOT": 0}, "tle": {"line1": "1 46468U 99025EZK 25356.71028488  .00004421  00000+0  18930-2 0  9995", "line2": "2 46468  98.8843  84.6069 0046588 202.7167 314.1415 14.24804080739581"}}, "geometry": {"type": "Point", "coordinates": [69.08742360562348, 65.83641684177626]}}, {"type": "Feature", "properties": {"norad_id": 46986, "name": "FENGYUN 1C DEB", "group": "fengyun-1c-debris", "lat": -2.1696127635323568, "lon": 25.208151061573496, "alt_km": 811.3252217246309, "timestamp": "2025-12-27T12:55:14.796509+00:00", "meta": {"OBJECT_NAME": "FENGYUN 1C DEB", "OBJECT_ID": "1999-025EZL", "EPOCH": "2025-12-23T19:19:36.010560", "MEAN_MOTION": 14.47217412, "ECCENTRICITY": 0.01051734, "INCLINATION": 98.2364, "RA_OF_ASC_NODE": 21.2604, "ARG_OF_PERICENTER": 178.1247, "MEAN_ANOMALY": 182.0361, "EPHEMERIS_TYPE": 0, "CLASSIFICATION_TYPE": "U", "NORAD_CAT_ID": 46986, "ELEMENT_SET_NO": 999, "REV_AT_EPOCH": 63560, "BSTAR": 0.00037494838, "MEAN_MOTION_DOT": 1.421e-05, "MEAN_MOTION_DDOT": 0}, "tle": {"line1": "1 46986U 99025EZL 25357.80527790  .00001421  00000+0  37495-3 0  9996", "line2": "2 46986  98.2364  21.2604 0105173 178.1247 182.0361 14.47217412635603"}}, "geometry": {"type": "Point", "coordinates": [25.208151061573496, -2.1696127635323568]}}, {"type": "Feature", "properties": {"norad_id": 46989, "name": "FENGYUN 1C DEB", "group": "fengyun-1c-debris", "lat": 77.42520706450857, "lon": 114.69671814153867, "alt_km": 1100.923813047345, "timestamp": "2025-12-27T12:55:14.796519+00:00", "meta": {"OBJECT_NAME": "FENGYUN 1C DEB", "OBJECT_ID": "1999-025EZP", "EPOCH": "2025-12-24T05:21:04.103424", "MEAN_MOTION": 13.7943268, "ECCENTRICITY": 0.02440893, "INCLINATION": 99.5054, "RA_OF_ASC_NODE": 160.0523, "ARG_OF_PERICENTER": 306.9712, "MEAN_ANOMALY": 237.4301, "EPHEMERIS_TYPE": 0, "CLASSIFICATION_TYPE": "U", "NORAD_CAT_ID": 46989, "ELEMENT_SET_NO": 999, "REV_AT_EPOCH": 71200, "BSTAR": 0.0046273535, "MEAN_MOTION_DOT": 5.906e-05, "MEAN_MOTION_DDOT": 0}, "tle": {"line1": "1 46989U 99025EZP 25358.22296416  .00005906  00000+0  46274-2 0  9990", "line2": "2 46989  99.5054 160.0523 0244089 306.9712 237.4301 13.79432680712005"}}, "geometry": {"type": "Point", "coordinates": [114.69671814153867, 77.42520706450857]}}, {"type": "Feature", "properties": {"norad_id": 46990, "name": "FENGYUN 1C DEB", "group": "fengyun-1c-debris", "lat": 58.22310317084873, "lon": -168.7580972392913, "alt_km": 611.7673092569648, "timestamp": "2025-12-27T12:55:14.796530+00:00", "meta": {"OBJECT_NAME": "FENGYUN 1C DEB", "OBJECT_ID": "1999-025EZQ", "EPOCH": "2025-12-26T19:52:42.432096", "MEAN_MOTION": 14.24082362, "ECCENTRICITY": 0.03578349, "INCLINATION": 98.2318, "RA_OF_ASC_NODE": 204.0893, "ARG_OF_PERICENTER": 18.9661, "MEAN_ANOMALY": 359.2043, "EPHEMERIS_TYPE": 0, "CLASSIFICATION_TYPE": "U", "NORAD_CAT_ID": 46990, "ELEMENT_SET_NO": 999, "REV_AT_EPOCH": 8730, "BSTAR": 0.0023134433, "MEAN_MOTION_DOT": 0.00010347, "MEAN_MOTION_DDOT": 0}, "tle": {"line1": "1 46990U 99025EZQ 25360.82826889  .00010347  00000+0  23134-2 0  9999", "line2": "2 46990  98.2318 204.0893 0357834  18.9661 359.2043 14.24082362 87304"}}, "geometry": {"type": "Point", "coordinates": [-168.7580972392913, 58.22310317084873]}}, {"type": "Feature", "properties": {"norad_id": 46992, "name": "FENGYUN 1C DEB", "group": "fengyun-1c-debris", "lat": -34.541252601743096, "lon": -5.898050852517037, "alt_km": 945.0058556767672, "timestamp": "2025-12-27T12:55:14.796540+00:00", "meta": {"OBJECT_NAME": "FENGYUN 1C DEB", "OBJECT_ID": "1999-025EZS", "EPOCH": "2025-12-24T16:30:54.083808", "MEAN_MOTION": 14.0071494, "ECCENTRICITY": 0.00724273, "INCLINATION": 98.9011, "RA_OF_ASC_NODE": 345.133, "ARG_OF_PERICENTER": 127.6993, "MEAN_ANOMALY": 233.0769, "EPHEMERIS_TYPE": 0, "CLASSIFICATION_TYPE": "U", "NORAD_CAT_ID": 46992, "ELEMENT_SET_NO": 999, "REV_AT_EPOCH": 61124, "BSTAR": 0.00045239816, "MEAN_MOTION_DOT": 6.47e-06, "MEAN_MOTION_DDOT": 0}, "tle": {"line1": "1 46992U 99025EZS 25358.68812597  .00000647  00000+0  45240-3 0  9998", "line2": "2 46992  98.9011 345.1330 0072427 127.6993 233.0769 14.00714940611242"}}, "geometry": {"type": "Point", "coordinates": [-5.898050852517037, -34.541252601743096]}}, {"type": "Feature", "properties": {"norad_id": 46993, "name": "FENGYUN 1C DEB", "group": "fengyun-1c-debris", "lat": -66.7497130375268, "lon": 139.54692249709373, "alt_km": 843.2296020646036, "timestamp": "2025-12-27T12:55:14.796550+00:00", "meta": {"OBJECT_NAME": "FENGYUN 1C DEB", "OBJECT_ID": "1999-025EZT", "EPOCH": "2025-12-18T13:48:38.255328", "MEAN_MOTION": 13.69154142, "ECCENTRICITY": 0.02625123, "INCLINATION": 98.7233, "RA_OF_ASC_NODE": 110.4847, "ARG_OF_PERICENTER": 283.8917, "MEAN_ANOMALY": 132.0062, "EPHEMERIS_TYPE": 0, "CLASSIFICATION_TYPE": "U", "NORAD_CAT_ID": 46993, "ELEMENT_SET_NO": 999, "REV_AT_EPOCH": 60337, "BSTAR": 0.00040493614, "MEAN_MOTION_DOT": 4.06e-06, "MEAN_MOTION_DDOT": 0}, "tle": {"line1": "1 46993U 99025EZT 25352.57544277  .00000406  00000+0  40494-3 0  9997", "line2": "2 46993  98.7233 110.4847 0262512 283.8917 132.0062 13.69154142603375"}}, "geometry": {"type": "Point", "coordinates": [139.54692249709373, -66.7497130375268]}}]}